stk.v.4.3 

BEGIN Ephemeris 
 
NumberOfEphemerisPoints		146 
ScenarioEpoch	    2 Jan 2020 12:29:17.593725622 
InterpolationMethod		Lagrange 
InterpolationOrder		5 
CentralBody				Earth 
CoordinateSystem			TEME 
CoordinateSystemEpoch	  2 Jan 2020 12:29:17.593725622 
DistanceUnit			Kilometers 
 
EphemerisTimePosVel 
 
       0.00000000    2490.08334212   -6700.35053767       0.03463618  0.433084919  0.170951419  7.452636274
 END Ephemeris 
